ONEWEB-0328             
1 49197U 21083M   25075.47024761  .00000200  00000+0  51358-3 0  9990
2 49197  87.8915  51.1814 0001772  82.2667 277.8663 13.13469818170818
ONEWEB-0331             
1 49198U 21083N   25075.53729361  .00000069  00000+0  14111-3 0  9995
2 49198  87.9062  66.4428 0001642  92.9041 267.2279 13.18685515169692
ONEWEB-0333             
1 49199U 21083P   25075.46518123  .00000282  00000+0  73626-3 0  9993
2 49199  87.8924  51.2383 0001988  82.5873 277.5481 13.13471335170826
ONEWEB-0334             
1 49200U 21083Q   25075.49587884  .00000077  00000+0  15785-3 0  9993
2 49200  87.9328   5.5669 0002792  76.9408 283.2036 13.20775991176371
ONEWEB-0335             
1 49201U 21083R   25075.46010401  .00000308  00000+0  80795-3 0  9997
2 49201  87.8926  51.2276 0001750  90.6291 269.5038 13.13472546170839
ONEWEB-0336             
1 49202U 21083S   25075.43131007 -.00000098  00000+0 -30243-3 0  9992
2 49202  87.8924  51.2273 0002011  88.2246 271.9114 13.13468549170828
ONEWEB-0337             
1 49203U 21083T   25075.44134680  .00000233  00000+0  60288-3 0  9995
2 49203  87.8923  51.2243 0001713  84.0689 276.0636 13.13470568170827
ONEWEB-0338             
1 49204U 21083U   25075.54627633  .00000063  00000+0  12267-3 0  9997
2 49204  87.9334   5.5415 0002172  74.2124 285.9249 13.20771857176405
ONEWEB-0339             
1 49205U 21083V   25075.90701334  .00000332  00000+0  87290-3 0  9996
2 49205  87.8924  51.1208 0001852  79.5901 280.5437 13.13472641172162
ONEWEB-0340             
1 49206U 21083W   25075.90244162  .00000076  00000+0  15969-3 0  9997
2 49206  87.9063  66.3667 0001775  89.3863 270.7472 13.18686947170995
ONEWEB-0341             
1 49207U 21083X   25075.53097274  .00000084  00000+0  18134-3 0  9993
2 49207  87.9061  66.4515 0001484  70.5300 289.5992 13.18685889169674
ONEWEB-0342             
1 49208U 21083Y   25075.55258618  .00000024  00000+0  26633-4 0  9995
2 49208  87.9325   5.5272 0001978  76.7302 283.4052 13.20772992176370
ONEWEB-0343             
1 49209U 21083Z   25075.90559227  .00000083  00000+0  17888-3 0  9991
2 49209  87.9055  66.3678 0001791  67.0057 293.1264 13.18686273171066
ONEWEB-0344             
1 49210U 21083AA  25075.49479236 -.00000275  00000+0 -78819-3 0  9994
2 49210  87.8924  51.2275 0001493  79.6449 280.4849 13.13467201170814
ONEWEB-0345             
1 49211U 21083AB  25075.89348892  .00000290  00000+0  75913-3 0  9999
2 49211  87.8922  51.1157 0001446  76.5751 283.5539 13.13469583172177
ONEWEB-0346             
1 49212U 21083AC  25075.53571020  .00000076  00000+0  16079-3 0  9992
2 49212  87.9062  66.4600 0001752 101.2385 258.8944 13.18686171169669
ONEWEB-0348             
1 49213U 21083AD  25075.84582890  .00000128  00000+0  28297-3 0  9997
2 49213  87.9338   5.4936 0002296  77.1920 282.9470 13.20827738177740
ONEWEB-0350             
1 49214U 21083AE  25075.44485661  .00000208  00000+0  53584-3 0  9998
2 49214  87.8923  51.1961 0001591  80.1790 279.9519 13.13472986170849
ONEWEB-0351             
1 49215U 21083AF  25075.53667058 -.00000009  00000+0 -55235-4 0  9998
2 49215  87.9329   5.5154 0002446  61.8102 298.3278 13.20771184176361
ONEWEB-0352             
1 49216U 21083AG  25075.42623605 -.00000189  00000+0 -55118-3 0  9995
2 49216  87.8924  51.2386 0002117  72.8133 287.3228 13.13469268170937
ONEWEB-0354             
1 49217U 21083AH  25075.78932567  .00000022  00000+0  21198-4 0  9991
2 49217  87.9333   5.4604 0001501  75.7442 284.3858 13.20773282177742
ONEWEB-0355             
1 49218U 21083AJ  25075.45502985  .00000332  00000+0  87485-3 0  9997
2 49218  87.8925  51.2311 0001821  77.6520 282.4812 13.13471855170819
ONEWEB-0357             
1 49219U 21083AK  25075.18011117 -.00000059  00000+0 -17642-3 0  9996
2 49219  87.9332   5.5903 0001877  73.0641 287.0698 13.20773346176353
ONEWEB-0332             
1 49279U 21090A   25075.59852480  .00000275  00000+0  70851-3 0  9990
2 49279  87.9073  20.7065 0002158  77.9585 282.1787 13.14504356167465
ONEWEB-0347             
1 49280U 21090B   25075.17063816  .00000036  00000+0  56658-4 0  9998
2 49280  87.9333   5.5979 0002258  83.5545 276.5845 13.20772532170580
ONEWEB-0349             
1 49281U 21090C   25075.80825681  .00000131  00000+0  29108-3 0  9990
2 49281  87.9335   5.4757 0001958  80.5820 279.5534 13.20774318170745
ONEWEB-0353             
1 49282U 21090D   25075.59058182  .00000176  00000+0  44151-3 0  9995
2 49282  87.9073  20.6943 0002191  80.3840 279.7537 13.14505761167468
ONEWEB-0356             
1 49283U 21090E   25075.50364459  .00000106  00000+0  22800-3 0  9994
2 49283  87.9334   5.5280 0002011 107.5599 252.5754 13.20775299169418
ONEWEB-0358             
1 49284U 21090F   25075.53364544  .00000117  00000+0  25639-3 0  9998
2 49284  87.9334   5.5114 0001702  84.8679 275.2648 13.20773185170145
ONEWEB-0359             
1 49285U 21090G   25075.53049444  .00000098  00000+0  20942-3 0  9998
2 49285  87.9333   5.5258 0001454  75.4654 284.6641 13.20773144170127
ONEWEB-0360             
1 49286U 21090H   25075.52102386  .00000116  00000+0  25259-3 0  9990
2 49286  87.9333   5.5332 0001714  77.3532 282.7793 13.20772630169434
ONEWEB-0361             
1 49287U 21090J   25075.80509831  .00000087  00000+0  18125-3 0  9999
2 49287  87.9333   5.4721 0001845  84.0071 276.1273 13.20770239170754
ONEWEB-0362             
1 49288U 21090K   25075.39544511 -.00000015  00000+0 -68549-4 0  9997
2 49288  87.9216  35.9746 0001913  73.8513 286.2830 13.19726498166531
ONEWEB-0363             
1 49289U 21090L   25075.51786622  .00000167  00000+0  37869-3 0  9999
2 49289  87.9334   5.5238 0001755  92.2286 267.9048 13.20772990169897
ONEWEB-0364             
1 49290U 21090M   25075.32847697  .00000036  00000+0  56198-4 0  9992
2 49290  87.9335   5.5905 0001943  84.4433 275.6921 13.20772046171001
ONEWEB-0365             
1 49291U 21090N   25075.40491092 -.00000038  00000+0 -12845-3 0  9990
2 49291  87.9209  35.9352 0002018  79.8648 280.2713 13.19727088166048
ONEWEB-0366             
1 49292U 21090P   25075.20683478  .00000179  00000+0  44749-3 0  9992
2 49292  87.9074  20.7819 0001881  82.1383 277.9960 13.14505837167396
ONEWEB-0367             
1 49293U 21090Q   25075.51628460  .00000162  00000+0  36627-3 0  9995
2 49293  87.9334   5.5192 0001976  77.4593 282.6761 13.20773446169413
ONEWEB-0368             
1 49294U 21090R   25075.79247780  .00000082  00000+0  16997-3 0  9997
2 49294  87.9334   5.4973 0002579  92.2783 267.8646 13.20774041171902
ONEWEB-0369             
1 49295U 21090S   25075.40017962 -.00000003  00000+0 -40714-4 0  9993
2 49295  87.9216  35.9578 0002020  80.7782 279.3580 13.19725049166038
ONEWEB-0370             
1 49296U 21090T   25075.52575937  .00000081  00000+0  16829-3 0  9991
2 49296  87.9335   5.5225 0001706  69.1449 290.9867 13.20772387169459
ONEWEB-0371             
1 49297U 21090U   25075.40807679  .00000047  00000+0  83924-4 0  9993
2 49297  87.9215  35.9460 0001953  77.8386 282.2965 13.19726748166071
ONEWEB-0372             
1 49298U 21090V   25075.51457267  .00000149  00000+0  33530-3 0  9990
2 49298  87.9335   5.5339 0002014  78.4722 281.6637 13.20772505169428
ONEWEB-0373             
1 49299U 21090W   25075.16275334  .00000083  00000+0  17125-3 0  9994
2 49299  87.9334   5.6160 0001852  86.9590 273.1756 13.20773227170564
ONEWEB-0374             
1 49300U 21090X   25075.27025570 -.00000029  00000+0 -11154-3 0  9992
2 49300  87.9072  20.7511 0002112  95.7135 264.4236 13.14501877167405
ONEWEB-0375             
1 49301U 21090Y   25075.30162751  .00000081  00000+0  16773-3 0  9998
2 49301  87.9334   5.5659 0001601  99.6079 260.5236 13.20772734170087
ONEWEB-0376             
1 49302U 21090Z   25075.40650210  .00000011  00000+0 -40833-5 0  9992
2 49302  87.9208  35.9371 0002134  78.2931 281.8442 13.19725750166071
ONEWEB-0377             
1 49303U 21090AA  25075.51484357  .00000142  00000+0  31798-3 0  9994
2 49303  87.9333   5.5161 0001582  76.2447 283.8862 13.20772184170109
ONEWEB-0378             
1 49304U 21090AB  25075.83995862  .00000121  00000+0  26494-3 0  9992
2 49304  87.9336   5.4582 0001825  83.5301 276.6040 13.20774019170735
ONEWEB-0379             
1 49305U 21090AC  25075.56995643 -.00000205  00000+0 -58675-3 0  9991
2 49305  87.9076  20.6956 0002039  81.7779 278.3582 13.14500632167443
ONEWEB-0380             
1 49306U 21090AD  25075.40332627  .00000049  00000+0  91294-4 0  9991
2 49306  87.9216  35.9595 0001753  85.0126 275.1207 13.19725529166046
ONEWEB-0381             
1 49307U 21090AE  25075.81458427  .00000117  00000+0  25674-3 0  9998
2 49307  87.9334   5.4648 0001696  80.9370 279.1955 13.20771849170755
ONEWEB-0382             
1 49308U 21090AF  25075.49892626  .00000083  00000+0  17264-3 0  9994
2 49308  87.9334   5.5224 0001900  91.5663 268.5688 13.20772968169406
ONEWEB-0383             
1 49309U 21090AG  25074.87856348 -.00000164  00000+0 -47736-3 0  9996
2 49309  87.9071  20.8153 0001984  84.5093 275.6263 13.14504544167386
ONEWEB-0384             
1 49310U 21090AH  25075.87448365  .00000117  00000+0  25535-3 0  9994
2 49310  87.9336   5.4637 0002000  95.8352 264.3010 13.20776049170771
ONEWEB-0385             
1 49311U 21090AJ  25075.86982169  .00000042  00000+0  72221-4 0  9991
2 49311  87.9335   5.4653 0001898  84.0978 276.0372 13.20773313170757
ONEWEB-0386             
1 49312U 21090AK  25075.81142471  .00000119  00000+0  25993-3 0  9999
2 49312  87.9328   5.4534 0001953  88.8832 271.2525 13.20773127170751
ONEWEB-0387             
1 49313U 21090AL  25075.49260352  .00000036  00000+0  57312-4 0  9992
2 49313  87.9318   5.5878 0001544  86.4308 273.7002 13.20774407169400
ONEWEB-0388             
1 49314U 21090AM  25075.39860892 -.00000025  00000+0 -93612-4 0  9990
2 49314  87.9216  35.9650 0001947  85.7500 274.3855 13.19725418166031
